OBJECT_NAME,OBJECT_ID,EPOCH,MEAN_MOTION,ECCENTRICITY,INCLINATION,RA_OF_ASC_NODE,ARG_OF_PERICENTER,MEAN_ANOMALY,EPHEMERIS_TYPE,CLASSIFICATION_TYPE,NORAD_CAT_ID,ELEMENT_SET_NO,REV_AT_EPOCH,BSTAR,MEAN_MOTION_DOT,MEAN_MOTION_DDOT
COSMOS 2058,1990-010A,2026-06-14T11:43:09.961536,15.11996158,.00095352,82.4670,312.0161,10.5226,349.6202,0,U,20465,999,95686,.21963845E-3,.3801E-4,0
SL-14 R/B,1990-010B,2026-06-14T12:54:07.572960,14.83644689,.00193199,82.5016,176.4333,345.2648,14.8001,0,U,20466,999,94284,.36538965E-4,.326E-5,0
SL-14 R/B,1990-018B,2026-06-14T09:05:08.613024,14.82214463,.00172867,82.5209,132.7328,130.3183,229.9545,0,U,20511,999,93690,.39562115E-4,.34E-5,0
HST,1990-037B,2026-06-14T03:27:36.730368,15.30716351,.00019122,28.4715,101.3706,110.8714,249.2086,0,U,20580,999,78810,.19998963E-3,.6344E-4,0
SL-16 R/B,1990-046B,2026-06-14T13:04:19.402464,14.15025540,.00135281,70.9996,94.4979,165.7174,194.4334,0,U,20625,999,86209,.13325851E-3,.211E-5,0
COSMOS 2084,1990-055A,2026-06-13T22:34:58.448064,15.06104058,.000551,62.7910,7.1711,273.5813,86.4657,0,U,20663,999,95081,.15328E-3,.205E-4,0
SL-6 R/B(2),1990-055D,2026-06-14T14:08:34.179936,15.03995426,.00402254,62.7824,284.2168,4.7912,355.3564,0,U,20666,999,95276,.11528107E-3,.142E-4,0
SL-8 R/B,1990-078B,2026-06-14T12:18:39.803616,14.92215711,.03515817,82.9001,164.0607,47.4786,315.5560,0,U,20775,999,82372,.50252539E-3,.1785E-3,0
SL-8 R/B,1991-006B,2026-06-14T13:03:01.344384,13.77505643,.00235772,82.9424,98.0001,121.5798,52.1573,0,U,21088,999,77740,.19380012E-4,.35E-6,0
OKEAN-3,1991-039A,2026-06-14T11:30:46.744416,15.05312042,.00143116,82.5158,243.0063,8.1840,351.9618,0,U,21397,999,87959,.16312965E-3,.2366E-4,0
COSMOS 2151,1991-042A,2026-06-14T14:12:48.636576,15.00431323,.00138334,82.4960,350.1855,91.7732,268.5077,0,U,21422,999,87772,.12462043E-3,.1597E-4,0
SL-14 R/B,1991-042B,2026-06-14T09:13:41.627712,14.81900908,.00154826,82.4926,129.5238,285.0312,74.9189,0,U,21423,999,86739,.38685448E-4,.33E-5,0
ERS-1,1991-050A,2026-06-14T12:33:52.604928,14.39516531,.00307107,98.7797,186.1564,275.2266,84.5416,0,U,21574,999,82966,.11717889E-3,.321E-5,0
ARIANE 40 R/B,1991-050F,2026-06-14T13:15:52.198272,14.42955622,.0004154,98.1877,214.0721,126.9411,233.2161,0,U,21610,999,83296,.86187027E-4,.247E-5,0
INTERCOSMOS 25,1991-086A,2026-06-14T11:17:45.095712,12.12192313,.14841129,82.6052,251.4538,268.2589,74.8557,0,U,21819,999,50841,.11849233E-3,.594E-5,0
SL-8 R/B,1992-008B,2026-06-14T14:11:17.215872,13.75976238,.00336719,82.9264,195.7178,222.1354,250.5341,0,U,21876,999,72274,.12778019E-3,.139E-5,0
SL-8 R/B,1992-020B,2026-06-14T12:44:13.121088,13.75548536,.00298947,82.9306,81.8304,29.8317,142.7422,0,U,21938,999,71444,.38908438E-4,.53E-6,0
USA 81,1992-023A,2026-06-14T11:32:03.789024,14.32397510,.00027709,85.0076,75.5695,87.0583,273.0927,0,U,21949,999,10864,.47332529E-4,.148E-5,0
COSMOS 2219,1992-076A,2026-06-14T10:21:52.188192,14.14097365,.00164706,71.0577,175.8320,48.6580,311.5956,0,U,22219,999,73205,.13248565E-3,.206E-5,0
SL-16 R/B,1992-076B,2026-06-14T13:23:38.863680,14.16871345,.00146087,71.0004,344.3197,302.1377,114.7033,0,U,22220,999,73555,.51017284E-4,.54E-6,0
COSMOS 2221,1992-080A,2026-06-14T12:45:08.962272,14.96527144,.00130744,82.5030,186.3091,221.7849,138.2376,0,U,22236,999,79527,.1094436E-3,.1271E-4,0
SL-16 R/B,1992-093B,2026-06-14T09:58:33.179520,14.15462539,.00041199,71.0199,161.2098,193.0991,167.0025,0,U,22285,999,72684,-.12755105E-3,-.297E-5,0
COSMOS 2228,1992-094A,2026-06-14T14:46:18.814656,14.97578143,.00171337,82.5174,144.5061,341.3154,18.7438,0,U,22286,999,79056,.15745196E-3,.1869E-4,0
SL-16 R/B,1993-016B,2026-06-14T07:47:40.945344,14.15312430,.0010411,71.0083,12.2197,187.4886,172.6083,0,U,22566,999,71584,.19472199E-3,.332E-5,0
COSMOS 2242,1993-024A,2026-06-14T13:46:13.493856,14.96896361,.0015596,82.5180,174.0432,345.4540,14.6231,0,U,22626,999,79488,.13159449E-3,.1539E-4,0
SL-16 R/B,1993-059B,2026-06-14T10:55:08.591520,14.17247836,.00151373,70.9887,167.0655,58.6811,301.5792,0,U,22803,999,69324,.87043533E-4,.128E-5,0
ARIANE 40 R/B,1993-061H,2026-06-14T09:53:40.099488,14.32906827,.00106415,98.4819,232.3269,4.6746,355.4535,0,U,22830,999,70795,.75493082E-4,.163E-5,0
COSMOS 2278,1994-023A,2026-06-14T13:25:36.692544,14.14397237,.00105998,71.0548,332.4230,246.2735,113.7276,0,U,23087,999,65850,.12323899E-3,.189E-5,0
SL-16 R/B,1994-023B,2026-06-14T13:29:50.490816,14.15023586,.00029403,70.9994,227.4437,188.6742,171.4330,0,U,23088,999,65979,.19458006E-3,.329E-5,0
SL-16 R/B,1994-074B,2026-06-14T14:05:58.297920,14.79500373,.00050772,97.6992,192.4168,264.6447,210.6188,0,U,23343,999,70157,.55282747E-4,.364E-5,0
